OBJECT_NAME,OBJECT_ID,EPOCH,MEAN_MOTION,ECCENTRICITY,INCLINATION,RA_OF_ASC_NODE,ARG_OF_PERICENTER,MEAN_ANOMALY,EPHEMERIS_TYPE,CLASSIFICATION_TYPE,NORAD_CAT_ID,ELEMENT_SET_NO,REV_AT_EPOCH,BSTAR,MEAN_MOTION_DOT,MEAN_MOTION_DDOT
STARLINK-36655,2026-033P,2026-07-17T12:26:23.396640,15.27583285,.0001458,42.9984,253.4984,287.3323,72.7369,0,U,67834,999,2453,.12463E-3,.3169E-4,0
STARLINK-36657,2026-033Q,2026-07-17T11:01:28.583904,15.27570616,.0001477,42.9998,253.9106,279.5338,80.5347,0,U,67835,999,2452,-.45903E-4,-.1525E-4,0
STARLINK-36650,2026-033R,2026-07-17T11:49:35.543136,15.27586045,.0001727,43.0007,254.1767,267.3901,92.6753,0,U,67836,999,2452,.21133E-3,.5559E-4,0
STARLINK-36649,2026-033S,2026-07-17T15:12:44.398944,15.27576841,.00016765,42.9996,253.5142,282.6493,77.4171,0,U,67837,999,2454,.42847186E-3,.11546E-3,0
STARLINK-36654,2026-033T,2026-07-17T11:44:02.599008,15.27580998,.0001321,43.0029,254.1471,274.7317,85.3384,0,U,67838,999,2452,.18146E-3,.4735E-4,0
STARLINK-36652,2026-033U,2026-07-17T14:46:48.149184,15.27585775,.00024091,43.0037,253.3822,284.7537,75.3048,0,U,67839,999,2454,.27685391E-3,.7365E-4,0
STARLINK-36651,2026-033V,2026-07-17T11:32:56.202720,15.27584186,.0001726,43.0039,254.0871,272.0914,87.9740,0,U,67840,999,2452,.18814E-3,.4919E-4,0
STARLINK-36656,2026-033W,2026-07-17T05:07:03.110016,15.27586235,.00013816,43.0020,255.5122,250.2899,109.7804,0,U,67841,999,2448,.10351776E-3,.2588E-4,0
STARLINK-36653,2026-033X,2026-07-17T11:18:07.977024,15.27581953,.0001219,43.0011,254.0056,233.2294,126.8446,0,U,67842,999,2452,.12543E-3,.3191E-4,0
STARLINK-36589,2026-033Y,2026-07-17T11:07:00.804000,15.27584080,.0000288,43.0012,253.9455,235.6272,124.4553,0,U,67843,999,2452,-.62251E-4,-.1974E-4,0
STARLINK-36598,2026-033Z,2026-07-17T12:11:46.816800,15.27606945,.0001571,42.9987,254.2933,274.7750,85.2922,0,U,67844,999,2452,.38733E-3,.1042E-3,0
STARLINK-36606,2026-033AA,2026-07-17T12:37:29.379072,15.27571203,.00012115,42.9989,253.5510,268.8395,91.2318,0,U,67845,999,2453,.25324276E-3,.6711E-4,0
STARLINK-36658,2026-033AB,2026-07-17T13:34:51.297600,15.27581427,.0001459,42.9989,253.8661,279.6314,80.4372,0,U,67846,999,2453,.27455E-3,.7301E-4,0
STARLINK-36618,2026-033AC,2026-07-17T10:43:49.846080,15.27582861,.0002157,43.0000,239.6384,276.0209,84.0397,0,U,67847,999,2468,.13554E-3,.347E-4,0
STARLINK-36660,2026-033AD,2026-07-17T13:31:09.446592,15.27571077,.0002008,43.0007,253.8454,280.2295,79.8330,0,U,67848,999,2453,.35092E-3,.9404E-4,0
STARLINK-36602,2026-033AE,2026-07-17T10:43:11.761824,15.27577433,.0000984,43.0015,254.6942,268.0604,92.0134,0,U,67849,999,2451,.13924E-3,.3571E-4,0
STARLINK-36840,2026-034A,2026-07-17T16:32:59.481312,15.30207673,.00008953,53.1595,320.1173,60.3527,299.7563,0,U,67850,999,2394,.50378152E-3,.14594E-3,0
STARLINK-36348,2026-034B,2026-07-17T22:00:01.999584,15.34394055,.00010014,53.1597,319.4188,72.4571,282.7747,0,U,67851,999,587,-.47032047E-3,-.16229E-3,0
STARLINK-36276,2026-034C,2026-07-17T20:52:18.924672,15.30880611,.00017555,53.1606,319.8271,59.6418,300.4757,0,U,67852,999,2396,.12585096E-1,.401533E-2,0
STARLINK-36785,2026-034D,2026-07-17T20:12:20.881440,15.34404310,.0001639,53.1594,319.6261,61.4567,298.6600,0,U,67853,999,2396,.40540894E-3,.13347E-3,0
STARLINK-36608,2026-034E,2026-07-17T20:00:51.103584,15.30199384,.00010106,53.1600,319.5698,74.7873,285.3240,0,U,67854,999,2395,.23493457E-3,.6605E-4,0
STARLINK-36838,2026-034F,2026-07-17T17:20:45.225888,15.31687370,.00025096,53.1619,319.5940,64.6216,295.5045,0,U,67855,999,2395,.91835107E-3,.2823E-3,0
STARLINK-36843,2026-034G,2026-07-17T14:19:33.359232,15.31712036,.0001449,53.1623,320.2488,61.4130,298.7018,0,U,67856,999,2393,.30415E-3,.9088E-4,0
STARLINK-36828,2026-034H,2026-07-17T17:20:15.892224,15.31704978,.00015049,53.1581,319.5896,69.2916,290.8247,0,U,67857,999,2395,.20867464E-3,.6117E-4,0
STARLINK-36837,2026-034J,2026-07-17T14:23:45.252384,15.34401971,.0001058,53.1604,317.4296,76.3408,283.7712,0,U,67858,999,2397,.28569E-3,.9289E-4,0
STARLINK-36393,2026-034K,2026-07-17T17:40:17.371488,15.31709489,.00008818,53.1601,318.9630,90.4691,269.6411,0,U,67859,999,2396,.19399873E-3,.5661E-4,0
STARLINK-35873,2026-034L,2026-07-17T17:10:48.693504,15.34405116,.00007678,53.1623,320.2605,148.0117,212.0932,0,U,67860,999,2397,.36220969E-3,.11883E-3,0
STARLINK-36325,2026-034M,2026-07-17T22:00:01.999584,15.34399719,.00011255,53.1596,319.4633,80.1240,240.2376,0,U,67861,999,587,-.53350517E-3,-.18358E-3,0
STARLINK-36332,2026-034N,2026-07-17T22:00:01.999584,15.30203606,.00009581,53.1607,319.5719,79.6397,184.6932,0,U,67862,999,587,-.54771634E-3,-.16547E-3,0
STARLINK-36835,2026-034P,2026-07-17T14:30:13.555584,15.30202952,.0001005,53.1618,320.9863,71.1992,288.9118,0,U,67863,999,2392,.33748E-3,.965E-4,0
